[{"OBJECT_NAME":"IRIDIUM 157","OBJECT_ID":"2018-030C","EPOCH":"2026-03-09T18:23:07.333440","MEAN_MOTION":14.34217888,"ECCENTRICITY":0.00021073,"INCLINATION":86.4009,"RA_OF_ASC_NODE":332.0022,"ARG_OF_PERICENTER":83.0005,"MEAN_ANOMALY":277.143,"EPHEMERIS_TYPE":0,"CLASSIFICATION_TYPE":"U","NORAD_CAT_ID":43251,"ELEMENT_SET_NO":999,"REV_AT_EPOCH":41588,"BSTAR":0.00012008452,"MEAN_MOTION_DOT":3.56e-6,"MEAN_MOTION_DDOT":0},{"OBJECT_NAME":"FENGYUN 1C DEB","OBJECT_ID":"1999-025EYC","EPOCH":"2026-03-07T15:52:44.213376","MEAN_MOTION":14.25774396,"ECCENTRICITY":0.00520083,"INCLINATION":98.7322,"RA_OF_ASC_NODE":140.3877,"ARG_OF_PERICENTER":335.0957,"MEAN_ANOMALY":24.7714,"EPHEMERIS_TYPE":0,"CLASSIFICATION_TYPE":"U","NORAD_CAT_ID":41825,"ELEMENT_SET_NO":999,"REV_AT_EPOCH":48558,"BSTAR":0.0016170891,"MEAN_MOTION_DOT":3.854e-5,"MEAN_MOTION_DDOT":0}]
